[
    [
        {
            "CCSDS_OMM_VERS": "3.0",
            "COMMENT": "GENERATED VIA SPACE-TRACK.ORG API",
            "CREATION_DATE": "2025-07-25T06:26:21",
            "ORIGINATOR": "18 SPCS",
            "OBJECT_NAME": "CXO",
            "OBJECT_ID": "1999-040B",
            "CENTER_NAME": "EARTH",
            "REF_FRAME": "TEME",
            "TIME_SYSTEM": "UTC",
            "MEAN_ELEMENT_THEORY": "SGP4",
            "EPOCH": "2025-07-28T02:34:24.660768",
            "MEAN_MOTION": "0.37806077",
            "ECCENTRICITY": "0.83590770",
            "INCLINATION": "50.3751",
            "RA_OF_ASC_NODE": "127.8524",
            "ARG_OF_PERICENTER": "310.0488",
            "MEAN_ANOMALY": "0.5780",
            "EPHEMERIS_TYPE": "0",
            "CLASSIFICATION_TYPE": "U",
            "NORAD_CAT_ID": "25867",
            "ELEMENT_SET_NO": "999",
            "REV_AT_EPOCH": "2725",
            "BSTAR": "0.00000000000000",
            "MEAN_MOTION_DOT": "0.00000562",
            "MEAN_MOTION_DDOT": "0.0000000000000",
            "SEMIMAJOR_AXIS": "80790.587",
            "PERIOD": "3808.911",
            "APOAPSIS": "141945.926",
            "PERIAPSIS": "6878.978",
            "OBJECT_TYPE": "PAYLOAD",
            "RCS_SIZE": "LARGE",
            "COUNTRY_CODE": "US",
            "LAUNCH_DATE": "1999-07-23",
            "SITE": "AFETR",
            "DECAY_DATE": null,
            "FILE": "4795005",
            "GP_ID": "293423254",
            "TLE_LINE0": "0 CXO",
            "TLE_LINE1": "1 25867U 99040B   25209.10722987  .00000562  00000-0  00000+0 0  9996",
            "TLE_LINE2": "2 25867  50.3751 127.8524 8359077 310.0488   0.5780  0.37806077 27257"
        },
        {
            "CCSDS_OMM_VERS": "3.0",
            "COMMENT": "GENERATED VIA SPACE-TRACK.ORG API",
            "CREATION_DATE": "2025-07-24T21:26:44",
            "ORIGINATOR": "18 SPCS",
            "OBJECT_NAME": "XMM",
            "OBJECT_ID": "1999-066A",
            "CENTER_NAME": "EARTH",
            "REF_FRAME": "TEME",
            "TIME_SYSTEM": "UTC",
            "MEAN_ELEMENT_THEORY": "SGP4",
            "EPOCH": "2025-07-26T06:19:49.751328",
            "MEAN_MOTION": "0.50136022",
            "ECCENTRICITY": "0.48216930",
            "INCLINATION": "66.0724",
            "RA_OF_ASC_NODE": "287.2903",
            "ARG_OF_PERICENTER": "70.6446",
            "MEAN_ANOMALY": "0.1427",
            "EPHEMERIS_TYPE": "0",
            "CLASSIFICATION_TYPE": "U",
            "NORAD_CAT_ID": "25989",
            "ELEMENT_SET_NO": "999",
            "REV_AT_EPOCH": "3573",
            "BSTAR": "0.00000000000000",
            "MEAN_MOTION_DOT": "0.00000021",
            "MEAN_MOTION_DDOT": "0.0000000000000",
            "SEMIMAJOR_AXIS": "66932.225",
            "PERIOD": "2872.186",
            "APOAPSIS": "92826.754",
            "PERIAPSIS": "28281.426",
            "OBJECT_TYPE": "PAYLOAD",
            "RCS_SIZE": "LARGE",
            "COUNTRY_CODE": "ESA",
            "LAUNCH_DATE": "1999-12-10",
            "SITE": "FRGUI",
            "DECAY_DATE": null,
            "FILE": "4794639",
            "GP_ID": "293384296",
            "TLE_LINE0": "0 XMM",
            "TLE_LINE1": "1 25989U 99066A   25207.26377027  .00000021  00000-0  00000+0 0  9995",
            "TLE_LINE2": "2 25989  66.0724 287.2903 4821693  70.6446   0.1427  0.50136022 35732"
        },
        {
            "CCSDS_OMM_VERS": "3.0",
            "COMMENT": "GENERATED VIA SPACE-TRACK.ORG API",
            "CREATION_DATE": "2025-07-24T21:36:29",
            "ORIGINATOR": "18 SPCS",
            "OBJECT_NAME": "CLUSTER II-FM7",
            "OBJECT_ID": "2000-041A",
            "CENTER_NAME": "EARTH",
            "REF_FRAME": "TEME",
            "TIME_SYSTEM": "UTC",
            "MEAN_ELEMENT_THEORY": "SGP4",
            "EPOCH": "2025-07-26T06:15:37.342368",
            "MEAN_MOTION": "0.44783016",
            "ECCENTRICITY": "0.84716130",
            "INCLINATION": "145.1307",
            "RA_OF_ASC_NODE": "14.1573",
            "ARG_OF_PERICENTER": "229.5036",
            "MEAN_ANOMALY": "359.0593",
            "EPHEMERIS_TYPE": "0",
            "CLASSIFICATION_TYPE": "U",
            "NORAD_CAT_ID": "26410",
            "ELEMENT_SET_NO": "999",
            "REV_AT_EPOCH": "3060",
            "BSTAR": "0.00000000000000",
            "MEAN_MOTION_DOT": "0.00002238",
            "MEAN_MOTION_DDOT": "0.0000000000000",
            "SEMIMAJOR_AXIS": "72164.945",
            "PERIOD": "3215.505",
            "APOAPSIS": "126922.158",
            "PERIAPSIS": "4651.461",
            "OBJECT_TYPE": "PAYLOAD",
            "RCS_SIZE": "LARGE",
            "COUNTRY_CODE": "ESA",
            "LAUNCH_DATE": "2000-07-16",
            "SITE": "TTMTR",
            "DECAY_DATE": null,
            "FILE": "4794682",
            "GP_ID": "293385323",
            "TLE_LINE0": "0 CLUSTER II-FM7",
            "TLE_LINE1": "1 26410U 00041A   25207.26084887  .00002238  00000-0  00000+0 0  9991",
            "TLE_LINE2": "2 26410 145.1307  14.1573 8471613 229.5036 359.0593  0.44783016 30600"
        },
        {
            "CCSDS_OMM_VERS": "3.0",
            "COMMENT": "GENERATED VIA SPACE-TRACK.ORG API",
            "CREATION_DATE": "2025-07-24T04:00:16",
            "ORIGINATOR": "18 SPCS",
            "OBJECT_NAME": "CLUSTER II-FM8",
            "OBJECT_ID": "2000-045B",
            "CENTER_NAME": "EARTH",
            "REF_FRAME": "TEME",
            "TIME_SYSTEM": "UTC",
            "MEAN_ELEMENT_THEORY": "SGP4",
            "EPOCH": "2025-07-25T22:35:44.660832",
            "MEAN_MOTION": "0.44418119",
            "ECCENTRICITY": "0.84746260",
            "INCLINATION": "145.3908",
            "RA_OF_ASC_NODE": "14.5658",
            "ARG_OF_PERICENTER": "229.7720",
            "MEAN_ANOMALY": "359.1172",
            "EPHEMERIS_TYPE": "0",
            "CLASSIFICATION_TYPE": "U",
            "NORAD_CAT_ID": "26464",
            "ELEMENT_SET_NO": "999",
            "REV_AT_EPOCH": "1884",
            "BSTAR": "0.00000000000000",
            "MEAN_MOTION_DOT": "0.00002318",
            "MEAN_MOTION_DDOT": "0.0000000000000",
            "SEMIMAJOR_AXIS": "72559.631",
            "PERIOD": "3241.920",
            "APOAPSIS": "127673.070",
            "PERIAPSIS": "4689.922",
            "OBJECT_TYPE": "PAYLOAD",
            "RCS_SIZE": "LARGE",
            "COUNTRY_CODE": "ESA",
            "LAUNCH_DATE": "2000-08-09",
            "SITE": "TTMTR",
            "DECAY_DATE": null,
            "FILE": "4794090",
            "GP_ID": "293318140",
            "TLE_LINE0": "0 CLUSTER II-FM8",
            "TLE_LINE1": "1 26464U 00045B   25206.94148913  .00002318  00000-0  00000-0 0  9999",
            "TLE_LINE2": "2 26464 145.3908  14.5658 8474626 229.7720 359.1172  0.44418119 18840"
        },
        {
            "CCSDS_OMM_VERS": "3.0",
            "COMMENT": "GENERATED VIA SPACE-TRACK.ORG API",
            "CREATION_DATE": "2025-07-23T17:48:48",
            "ORIGINATOR": "18 SPCS",
            "OBJECT_NAME": "VELA 11/12 INTERSTAGE",
            "OBJECT_ID": "1970-027D",
            "CENTER_NAME": "EARTH",
            "REF_FRAME": "TEME",
            "TIME_SYSTEM": "UTC",
            "MEAN_ELEMENT_THEORY": "SGP4",
            "EPOCH": "2025-07-25T17:22:35.225184",
            "MEAN_MOTION": "0.45892512",
            "ECCENTRICITY": "0.79588670",
            "INCLINATION": "17.9209",
            "RA_OF_ASC_NODE": "37.4518",
            "ARG_OF_PERICENTER": "277.0385",
            "MEAN_ANOMALY": "359.0198",
            "EPHEMERIS_TYPE": "0",
            "CLASSIFICATION_TYPE": "U",
            "NORAD_CAT_ID": "60002",
            "ELEMENT_SET_NO": "999",
            "REV_AT_EPOCH": "1953",
            "BSTAR": "0.00000000000000",
            "MEAN_MOTION_DOT": "-0.00001199",
            "MEAN_MOTION_DDOT": "0.0000000000000",
            "SEMIMAJOR_AXIS": "70997.102",
            "PERIOD": "3137.767",
            "APOAPSIS": "121124.616",
            "PERIAPSIS": "8113.318",
            "OBJECT_TYPE": "PAYLOAD",
            "RCS_SIZE": null,
            "COUNTRY_CODE": "US",
            "LAUNCH_DATE": "1970-04-08",
            "SITE": "AFETR",
            "DECAY_DATE": null,
            "FILE": "4793777",
            "GP_ID": "293300211",
            "TLE_LINE0": "0 VELA 11/12 INTERSTAGE",
            "TLE_LINE1": "1 60002U 70027D   25206.72401881 -.00001199  00000-0  00000-0 0  9991",
            "TLE_LINE2": "2 60002  17.9209  37.4518 7958867 277.0385 359.0198  0.45892512 19537"
        }
    ]
]